SL-3 R/B                
1 13819U 83010B   26143.83270140  .00013309  00000+0  24876-3 0  9990
2 13819  81.1015 269.9418 0016273 144.0640 216.1703 15.48451986369567
SL-3 R/B                
1 14208U 83075B   26143.83650580  .00008415  00000+0  21194-3 0  9996
2 14208  97.6114 151.3552 0019472 324.9222  35.0739 15.39982012341717
COSMOS 1536             
1 14699U 84013A   26143.75194463  .00004507  00000+0  18013-3 0  9991
2 14699  82.5460  33.1753 0015013  25.4088 334.7884 15.24755582284055
SL-14 R/B               
1 14820U 84027B   26143.84001404  .00000278  00000+0  28903-4 0  9995
2 14820  82.5414 174.5495 0019595  85.2690 275.0763 14.86039409258790
SL-8 R/B                
1 15483U 85006B   26143.68529735  .00000091  00000+0  38805-4 0  9998
2 15483  74.0435 123.1509 0017960  15.5893 158.1080 14.37820632164809
SL-12 R/B(2)            
1 15772U 85042D   26143.83190530  .00000046  00000+0  42173-4 0  9996
2 15772  71.1081 288.9721 0034895   5.2726 101.9426 14.22000432125076
SL-14 R/B               
1 15945U 85069B   26143.86899779  .00000318  00000+0  33198-4 0  9990
2 15945  82.5253 314.2403 0017487 306.1934  53.7665 14.86494166184005
SL-16 R/B               
1 16182U 85097B   26143.82595975 -.00000157  00000+0 -54677-4 0  9990
2 16182  71.0031 342.3678 0006449 157.9804 213.0467 14.16607239 97875
SL-14 R/B               
1 16496U 86006B   26143.62393833  .00000347  00000+0  33882-4 0  9990
2 16496  82.5275 189.2275 0076997  25.3955 335.1013 14.86917871160340
COSMOS 1743             
1 16719U 86034A   26143.86209134  .00030109  00000+0  30984-3 0  9993
2 16719  82.5292 354.5526 0004751  28.8104 331.3417 15.64687411191987
SL-14 R/B               
1 16792U 86046B   26143.70426177  .00000261  00000+0  27280-4 0  9990
2 16792  82.4829   9.3111 0022644 343.9283  16.1212 14.85652653137543
SL-14 R/B               
1 16882U 86055B   26143.83269684  .00000301  00000+0  31721-4 0  9992
2 16882  82.5216  56.0270 0020489  83.9772 340.7406 14.85702025130529
AJISAI (EGS)            
1 16908U 86061A   26143.82200715 -.00000100  00000+0 -16028-4 0  9999
2 16908  50.0082 222.3189 0011364 118.8156  38.1155 12.44516399477356
