[
    {
        "OBJECT_NAME": "SL-3 R/B",
        "OBJECT_ID": "1983-010B",
        "EPOCH": "2026-05-23T19:59:05.400960",
        "MEAN_MOTION": 15.48451986,
        "ECCENTRICITY": 0.0016273,
        "INCLINATION": 81.1015,
        "RA_OF_ASC_NODE": 269.9418,
        "ARG_OF_PERICENTER": 144.064,
        "MEAN_ANOMALY": 216.1703,
        "EPHEMERIS_TYPE": 0,
        "CLASSIFICATION_TYPE": "U",
        "NORAD_CAT_ID": 13819,
        "ELEMENT_SET_NO": 999,
        "REV_AT_EPOCH": 36956,
        "BSTAR": 0.00024876,
        "MEAN_MOTION_DOT": 0.00013309,
        "MEAN_MOTION_DDOT": 0
    },
    {
        "OBJECT_NAME": "SL-3 R/B",
        "OBJECT_ID": "1983-075B",
        "EPOCH": "2026-05-23T20:04:34.101120",
        "MEAN_MOTION": 15.39982012,
        "ECCENTRICITY": 0.0019472,
        "INCLINATION": 97.6114,
        "RA_OF_ASC_NODE": 151.3552,
        "ARG_OF_PERICENTER": 324.9222,
        "MEAN_ANOMALY": 35.0739,
        "EPHEMERIS_TYPE": 0,
        "CLASSIFICATION_TYPE": "U",
        "NORAD_CAT_ID": 14208,
        "ELEMENT_SET_NO": 999,
        "REV_AT_EPOCH": 34171,
        "BSTAR": 0.00021194,
        "MEAN_MOTION_DOT": 8.415e-05,
        "MEAN_MOTION_DDOT": 0
    },
    {
        "OBJECT_NAME": "COSMOS 1536",
        "OBJECT_ID": "1984-013A",
        "EPOCH": "2026-05-23T18:02:48.016032",
        "MEAN_MOTION": 15.24755582,
        "ECCENTRICITY": 0.0015013,
        "INCLINATION": 82.546,
        "RA_OF_ASC_NODE": 33.1753,
        "ARG_OF_PERICENTER": 25.4088,
        "MEAN_ANOMALY": 334.7884,
        "EPHEMERIS_TYPE": 0,
        "CLASSIFICATION_TYPE": "U",
        "NORAD_CAT_ID": 14699,
        "ELEMENT_SET_NO": 999,
        "REV_AT_EPOCH": 28405,
        "BSTAR": 0.00018013,
        "MEAN_MOTION_DOT": 4.507e-05,
        "MEAN_MOTION_DDOT": 0
    },
    {
        "OBJECT_NAME": "SL-14 R/B",
        "OBJECT_ID": "1984-027B",
        "EPOCH": "2026-05-23T20:09:37.213056",
        "MEAN_MOTION": 14.86039409,
        "ECCENTRICITY": 0.0019595,
        "INCLINATION": 82.5414,
        "RA_OF_ASC_NODE": 174.5495,
        "ARG_OF_PERICENTER": 85.269,
        "MEAN_ANOMALY": 275.0763,
        "EPHEMERIS_TYPE": 0,
        "CLASSIFICATION_TYPE": "U",
        "NORAD_CAT_ID": 14820,
        "ELEMENT_SET_NO": 999,
        "REV_AT_EPOCH": 25879,
        "BSTAR": 2.8903e-05,
        "MEAN_MOTION_DOT": 2.78e-06,
        "MEAN_MOTION_DDOT": 0
    },
    {
        "OBJECT_NAME": "SL-8 R/B",
        "OBJECT_ID": "1985-006B",
        "EPOCH": "2026-05-23T16:26:49.691040",
        "MEAN_MOTION": 14.37820632,
        "ECCENTRICITY": 0.001796,
        "INCLINATION": 74.0435,
        "RA_OF_ASC_NODE": 123.1509,
        "ARG_OF_PERICENTER": 15.5893,
        "MEAN_ANOMALY": 158.108,
        "EPHEMERIS_TYPE": 0,
        "CLASSIFICATION_TYPE": "U",
        "NORAD_CAT_ID": 15483,
        "ELEMENT_SET_NO": 999,
        "REV_AT_EPOCH": 16480,
        "BSTAR": 3.8805e-05,
        "MEAN_MOTION_DOT": 9.1e-07,
        "MEAN_MOTION_DDOT": 0
    },
    {
        "OBJECT_NAME": "SL-12 R/B(2)",
        "OBJECT_ID": "1985-042D",
        "EPOCH": "2026-05-23T19:57:56.617920",
        "MEAN_MOTION": 14.22000432,
        "ECCENTRICITY": 0.0034895,
        "INCLINATION": 71.1081,
        "RA_OF_ASC_NODE": 288.9721,
        "ARG_OF_PERICENTER": 5.2726,
        "MEAN_ANOMALY": 101.9426,
        "EPHEMERIS_TYPE": 0,
        "CLASSIFICATION_TYPE": "U",
        "NORAD_CAT_ID": 15772,
        "ELEMENT_SET_NO": 999,
        "REV_AT_EPOCH": 12507,
        "BSTAR": 4.2173e-05,
        "MEAN_MOTION_DOT": 4.6e-07,
        "MEAN_MOTION_DDOT": 0
    },
    {
        "OBJECT_NAME": "SL-14 R/B",
        "OBJECT_ID": "1985-069B",
        "EPOCH": "2026-05-23T20:51:21.409056",
        "MEAN_MOTION": 14.86494166,
        "ECCENTRICITY": 0.0017487,
        "INCLINATION": 82.5253,
        "RA_OF_ASC_NODE": 314.2403,
        "ARG_OF_PERICENTER": 306.1934,
        "MEAN_ANOMALY": 53.7665,
        "EPHEMERIS_TYPE": 0,
        "CLASSIFICATION_TYPE": "U",
        "NORAD_CAT_ID": 15945,
        "ELEMENT_SET_NO": 999,
        "REV_AT_EPOCH": 18400,
        "BSTAR": 3.3198e-05,
        "MEAN_MOTION_DOT": 3.18e-06,
        "MEAN_MOTION_DDOT": 0
    },
    {
        "OBJECT_NAME": "SL-16 R/B",
        "OBJECT_ID": "1985-097B",
        "EPOCH": "2026-05-23T19:49:22.922400",
        "MEAN_MOTION": 14.16607239,
        "ECCENTRICITY": 0.0006449,
        "INCLINATION": 71.0031,
        "RA_OF_ASC_NODE": 342.3678,
        "ARG_OF_PERICENTER": 157.9804,
        "MEAN_ANOMALY": 213.0467,
        "EPHEMERIS_TYPE": 0,
        "CLASSIFICATION_TYPE": "U",
        "NORAD_CAT_ID": 16182,
        "ELEMENT_SET_NO": 999,
        "REV_AT_EPOCH": 9787,
        "BSTAR": -5.4677e-05,
        "MEAN_MOTION_DOT": -1.57e-06,
        "MEAN_MOTION_DDOT": 0
    },
    {
        "OBJECT_NAME": "SL-14 R/B",
        "OBJECT_ID": "1986-006B",
        "EPOCH": "2026-05-23T14:58:28.271712",
        "MEAN_MOTION": 14.86917871,
        "ECCENTRICITY": 0.0076997,
        "INCLINATION": 82.5275,
        "RA_OF_ASC_NODE": 189.2275,
        "ARG_OF_PERICENTER": 25.3955,
        "MEAN_ANOMALY": 335.1013,
        "EPHEMERIS_TYPE": 0,
        "CLASSIFICATION_TYPE": "U",
        "NORAD_CAT_ID": 16496,
        "ELEMENT_SET_NO": 999,
        "REV_AT_EPOCH": 16034,
        "BSTAR": 3.3882e-05,
        "MEAN_MOTION_DOT": 3.47e-06,
        "MEAN_MOTION_DDOT": 0
    },
    {
        "OBJECT_NAME": "COSMOS 1743",
        "OBJECT_ID": "1986-034A",
        "EPOCH": "2026-05-23T20:41:24.691776",
        "MEAN_MOTION": 15.64687411,
        "ECCENTRICITY": 0.0004751,
        "INCLINATION": 82.5292,
        "RA_OF_ASC_NODE": 354.5526,
        "ARG_OF_PERICENTER": 28.8104,
        "MEAN_ANOMALY": 331.3417,
        "EPHEMERIS_TYPE": 0,
        "CLASSIFICATION_TYPE": "U",
        "NORAD_CAT_ID": 16719,
        "ELEMENT_SET_NO": 999,
        "REV_AT_EPOCH": 19198,
        "BSTAR": 0.00030984,
        "MEAN_MOTION_DOT": 0.00030109,
        "MEAN_MOTION_DDOT": 0
    },
    {
        "OBJECT_NAME": "SL-14 R/B",
        "OBJECT_ID": "1986-046B",
        "EPOCH": "2026-05-23T16:54:08.216928",
        "MEAN_MOTION": 14.85652653,
        "ECCENTRICITY": 0.0022644,
        "INCLINATION": 82.4829,
        "RA_OF_ASC_NODE": 9.3111,
        "ARG_OF_PERICENTER": 343.9283,
        "MEAN_ANOMALY": 16.1212,
        "EPHEMERIS_TYPE": 0,
        "CLASSIFICATION_TYPE": "U",
        "NORAD_CAT_ID": 16792,
        "ELEMENT_SET_NO": 999,
        "REV_AT_EPOCH": 13754,
        "BSTAR": 2.728e-05,
        "MEAN_MOTION_DOT": 2.61e-06,
        "MEAN_MOTION_DDOT": 0
    },
    {
        "OBJECT_NAME": "SL-14 R/B",
        "OBJECT_ID": "1986-055B",
        "EPOCH": "2026-05-23T19:59:05.006976",
        "MEAN_MOTION": 14.85702025,
        "ECCENTRICITY": 0.0020489,
        "INCLINATION": 82.5216,
        "RA_OF_ASC_NODE": 56.027,
        "ARG_OF_PERICENTER": 83.9772,
        "MEAN_ANOMALY": 340.7406,
        "EPHEMERIS_TYPE": 0,
        "CLASSIFICATION_TYPE": "U",
        "NORAD_CAT_ID": 16882,
        "ELEMENT_SET_NO": 999,
        "REV_AT_EPOCH": 13052,
        "BSTAR": 3.1721e-05,
        "MEAN_MOTION_DOT": 3.01e-06,
        "MEAN_MOTION_DDOT": 0
    },
    {
        "OBJECT_NAME": "AJISAI (EGS)",
        "OBJECT_ID": "1986-061A",
        "EPOCH": "2026-05-23T19:43:41.417760",
        "MEAN_MOTION": 12.44516399,
        "ECCENTRICITY": 0.0011364,
        "INCLINATION": 50.0082,
        "RA_OF_ASC_NODE": 222.3189,
        "ARG_OF_PERICENTER": 118.8156,
        "MEAN_ANOMALY": 38.1155,
        "EPHEMERIS_TYPE": 0,
        "CLASSIFICATION_TYPE": "U",
        "NORAD_CAT_ID": 16908,
        "ELEMENT_SET_NO": 999,
        "REV_AT_EPOCH": 47735,
        "BSTAR": -1.6028e-05,
        "MEAN_MOTION_DOT": -1e-06,
        "MEAN_MOTION_DDOT": 0
    }
]